{
  "links" : {
    "next" : "https://api.nasa.gov/neo/rest/v1/feed?start_date=2015-08-23&end_date=2015-08-23&detailed=true&api_key=t0TVs3DtDT2H8Oy2Zy8m2eVrNsAVKAexjcZXUckd",
    "prev" : "https://api.nasa.gov/neo/rest/v1/feed?start_date=2015-08-21&end_date=2015-08-21&detailed=true&api_key=t0TVs3DtDT2H8Oy2Zy8m2eVrNsAVKAexjcZXUckd",
    "self" : "https://api.nasa.gov/neo/rest/v1/feed?start_date=2015-08-22&end_date=2015-08-22&detailed=true&api_key=t0TVs3DtDT2H8Oy2Zy8m2eVrNsAVKAexjcZXUckd"
  },
  "element_count" : 11,
  "near_earth_objects" : {
    "2015-08-22" : [ {
      "links" : {
        "self" : "https://api.nasa.gov/neo/rest/v1/neo/3725976?api_key=t0TVs3DtDT2H8Oy2Zy8m2eVrNsAVKAexjcZXUckd"
      },
      "neo_reference_id" : "3725976",
      "name" : "(2015 PW227)",
      "nasa_jpl_url" : "http://ssd.jpl.nasa.gov/sbdb.cgi?sstr=3725976",
      "absolute_magnitude_h" : 25.6,
      "estimated_diameter" : {
        "kilometers" : {
          "estimated_diameter_min" : 0.0201629919,
          "estimated_diameter_max" : 0.0450858206
        },
        "meters" : {
          "estimated_diameter_min" : 20.1629919443,
          "estimated_diameter_max" : 45.0858206172
        },
        "miles" : {
          "estimated_diameter_min" : 0.0125286985,
          "estimated_diameter_max" : 0.0280150214
        },
        "feet" : {
          "estimated_diameter_min" : 66.1515504905,
          "estimated_diameter_max" : 147.9193637137
        }
      },
      "is_potentially_hazardous_asteroid" : false,
      "close_approach_data" : [ {
        "close_approach_date" : "2015-08-22",
        "epoch_date_close_approach" : 1440226800000,
        "relative_velocity" : {
          "kilometers_per_second" : "10.327968826",
          "kilometers_per_hour" : "37180.6877736151",
          "miles_per_hour" : "23102.6334668888"
        },
        "miss_distance" : {
          "astronomical" : "0.0635760185",
          "lunar" : "24.7310714722",
          "kilometers" : "9510837",
          "miles" : "5909760.5"
        },
        "orbiting_body" : "Earth"
      } ],
      "orbital_data" : {
        "orbit_id" : "4",
        "orbit_determination_date" : "2017-04-06 08:32:29",
        "orbit_uncertainty" : "8",
        "minimum_orbit_intersection" : ".051126",
        "jupiter_tisserand_invariant" : "3.893",
        "epoch_osculation" : "2457246.5",
        "eccentricity" : ".4706304252155641",
        "semi_major_axis" : "1.820783887018311",
        "inclination" : "7.532973464918761",
        "ascending_node_longitude" : "134.480429617212",
        "orbital_period" : "897.3999253090652",
        "perihelion_distance" : ".9638675920452359",
        "perihelion_argument" : "237.8045291849686",
        "aphelion_distance" : "2.677700181991387",
        "perihelion_time" : "2457291.568854737203",
        "mean_anomaly" : "341.9202261468818",
        "mean_motion" : ".4011589368876042",
        "equinox" : "J2000"
      }
    }, {
      "links" : {
        "self" : "https://api.nasa.gov/neo/rest/v1/neo/3726598?api_key=t0TVs3DtDT2H8Oy2Zy8m2eVrNsAVKAexjcZXUckd"
      },
      "neo_reference_id" : "3726598",
      "name" : "(2015 QS8)",
      "nasa_jpl_url" : "http://ssd.jpl.nasa.gov/sbdb.cgi?sstr=3726598",
      "absolute_magnitude_h" : 27.0,
      "estimated_diameter" : {
        "kilometers" : {
          "estimated_diameter_min" : 0.0105816886,
          "estimated_diameter_max" : 0.023661375
        },
        "meters" : {
          "estimated_diameter_min" : 10.5816885933,
          "estimated_diameter_max" : 23.6613750114
        },
        "miles" : {
          "estimated_diameter_min" : 0.0065751544,
          "estimated_diameter_max" : 0.0147024923
        },
        "feet" : {
          "estimated_diameter_min" : 34.7168272045,
          "estimated_diameter_max" : 77.6291855923
        }
      },
      "is_potentially_hazardous_asteroid" : false,
      "close_approach_data" : [ {
        "close_approach_date" : "2015-08-22",
        "epoch_date_close_approach" : 1440226800000,
        "relative_velocity" : {
          "kilometers_per_second" : "7.7914188906",
          "kilometers_per_hour" : "28049.1080061306",
          "miles_per_hour" : "17428.6249163648"
        },
        "miss_distance" : {
          "astronomical" : "0.0128475778",
          "lunar" : "4.9977078438",
          "kilometers" : "1921970.375",
          "miles" : "1194257"
        },
        "orbiting_body" : "Earth"
      } ],
      "orbital_data" : {
        "orbit_id" : "6",
        "orbit_determination_date" : "2017-04-06 08:32:19",
        "orbit_uncertainty" : "7",
        "minimum_orbit_intersection" : ".0139935",
        "jupiter_tisserand_invariant" : "3.585",
        "epoch_osculation" : "2458000.5",
        "eccentricity" : ".5072178626445839",
        "semi_major_axis" : "2.078884018923737",
        "inclination" : "6.76519501797831",
        "ascending_node_longitude" : "151.6592517533426",
        "orbital_period" : "1094.822761592245",
        "perihelion_distance" : "1.024436910159256",
        "perihelion_argument" : "175.8478583397925",
        "aphelion_distance" : "3.133331127688217",
        "perihelion_time" : "2458350.136488994381",
        "mean_anomaly" : "245.0324084832503",
        "mean_motion" : ".3288203466618081",
        "equinox" : "J2000"
      }
    }, {
      "links" : {
        "self" : "https://api.nasa.gov/neo/rest/v1/neo/3726654?api_key=t0TVs3DtDT2H8Oy2Zy8m2eVrNsAVKAexjcZXUckd"
      },
      "neo_reference_id" : "3726654",
      "name" : "(2015 QU8)",
      "nasa_jpl_url" : "http://ssd.jpl.nasa.gov/sbdb.cgi?sstr=3726654",
      "absolute_magnitude_h" : 24.2,
      "estimated_diameter" : {
        "kilometers" : {
          "estimated_diameter_min" : 0.0384197891,
          "estimated_diameter_max" : 0.0859092601
        },
        "meters" : {
          "estimated_diameter_min" : 38.4197891064,
          "estimated_diameter_max" : 85.9092601232
        },
        "miles" : {
          "estimated_diameter_min" : 0.0238729428,
          "estimated_diameter_max" : 0.0533815229
        },
        "feet" : {
          "estimated_diameter_min" : 126.0491808919,
          "estimated_diameter_max" : 281.8545369825
        }
      },
      "is_potentially_hazardous_asteroid" : false,
      "close_approach_data" : [ {
        "close_approach_date" : "2015-08-22",
        "epoch_date_close_approach" : 1440226800000,
        "relative_velocity" : {
          "kilometers_per_second" : "4.763047214",
          "kilometers_per_hour" : "17146.9699702579",
          "miles_per_hour" : "10654.4603129083"
        },
        "miss_distance" : {
          "astronomical" : "0.1639838858",
          "lunar" : "63.789730072",
          "kilometers" : "24531640",
          "miles" : "15243254"
        },
        "orbiting_body" : "Earth"
      } ],
      "orbital_data" : {
        "orbit_id" : "7",
        "orbit_determination_date" : "2017-04-06 08:32:18",
        "orbit_uncertainty" : "8",
        "minimum_orbit_intersection" : ".161434",
        "jupiter_tisserand_invariant" : "3.600",
        "epoch_osculation" : "2457257.5",
        "eccentricity" : ".4453870799444034",
        "semi_major_axis" : "2.11171867807928",
        "inclination" : "5.458237664267171",
        "ascending_node_longitude" : "140.7662476021629",
        "orbital_period" : "1120.86296268059",
        "perihelion_distance" : "1.171186462385494",
        "perihelion_argument" : "192.6452929717496",
        "aphelion_distance" : "3.052250893773066",
        "perihelion_time" : "2457260.087429189628",
        "mean_anomaly" : "359.1689666450942",
        "mean_motion" : ".3211811006218325",
        "equinox" : "J2000"
      }
    } ]
  }
}